{"type": "FeatureCollection", "synthetic": true, "features": [{"type": "Feature", "geometry": {"type": "Polygon", "coordinates": [[[37.051193, -0.468068], [37.051025, -0.467715], [37.050699, -0.467847], [37.050887, -0.468231], [37.051193, -0.468068]]]}, "properties": {"plotId": "OCC0412-2", "memberId": "OCC0412", "plot": 2, "areaHa": 0.176, "treesRegistered": 216, "deliveries": [{"season": "2022/23", "kgCherry": 481}, {"season": "2023/24", "kgCherry": 558}, {"season": "2024/25", "kgCherry": 554}, {"season": "2025/26", "kgCherry": 234}], "synthetic": true}}, {"type": "Feature", "geometry": {"type": "Polygon", "coordinates": [[[37.083495, -0.471682], [37.083822, -0.470934], [37.083355, -0.470752], [37.083073, -0.471482], [37.083495, -0.471682]]]}, "properties": {"plotId": "OCC0412-1", "memberId": "OCC0412", "plot": 1, "areaHa": 0.476, "treesRegistered": 602, "deliveries": [{"season": "2022/23", "kgCherry": 1331}, {"season": "2023/24", "kgCherry": 2005}, {"season": "2024/25", "kgCherry": 1299}, {"season": "2025/26", "kgCherry": 1550}], "synthetic": true}}, {"type": "Feature", "geometry": {"type": "Polygon", "coordinates": [[[37.081864, -0.449124], [37.081527, -0.448778], [37.081144, -0.449186], [37.081496, -0.449547], [37.081864, -0.449124]]]}, "properties": {"plotId": "OCC0459-1", "memberId": "OCC0459", "plot": 1, "areaHa": 0.339, "treesRegistered": 391, "deliveries": [{"season": "2022/23", "kgCherry": 1539}, {"season": "2023/24", "kgCherry": 1843}, {"season": "2024/25", "kgCherry": 1804}, {"season": "2025/26", "kgCherry": 1630}], "synthetic": true}}, {"type": "Feature", "geometry": {"type": "Polygon", "coordinates": [[[37.070283, -0.455323], [37.069403, -0.455054], [37.06932, -0.455483], [37.070147, -0.455752], [37.070283, -0.455323]]]}, "properties": {"plotId": "OCC0693-1", "memberId": "OCC0693", "plot": 1, "areaHa": 0.487, "treesRegistered": 476, "deliveries": [{"season": "2022/23", "kgCherry": 566}, {"season": "2023/24", "kgCherry": 655}, {"season": "2024/25", "kgCherry": 677}, {"season": "2025/26", "kgCherry": 348}], "synthetic": true}}, {"type": "Feature", "geometry": {"type": "Polygon", "coordinates": [[[37.087033, -0.446474], [37.086665, -0.445981], [37.086237, -0.446291], [37.086579, -0.446747], [37.087033, -0.446474]]]}, "properties": {"plotId": "OCC0693-2", "memberId": "OCC0693", "plot": 2, "areaHa": 0.385, "treesRegistered": 340, "deliveries": [{"season": "2022/23", "kgCherry": 793}, {"season": "2023/24", "kgCherry": 1060}, {"season": "2024/25", "kgCherry": 895}, {"season": "2025/26", "kgCherry": 848}], "synthetic": true}}, {"type": "Feature", "geometry": {"type": "Polygon", "coordinates": [[[37.080776, -0.467983], [37.081195, -0.467433], [37.080928, -0.4672], [37.080557, -0.467806], [37.080776, -0.467983]]]}, "properties": {"plotId": "OCC0806-1", "memberId": "OCC0806", "plot": 1, "areaHa": 0.273, "treesRegistered": 344, "deliveries": [{"season": "2022/23", "kgCherry": 812}, {"season": "2023/24", "kgCherry": 988}, {"season": "2024/25", "kgCherry": 970}, {"season": "2025/26", "kgCherry": 949}], "synthetic": true}}, {"type": "Feature", "geometry": {"type": "Polygon", "coordinates": [[[37.053809, -0.473014], [37.054239, -0.472598], [37.054023, -0.472398], [37.053621, -0.472815], [37.053809, -0.473014]]]}, "properties": {"plotId": "OCC0897-1", "memberId": "OCC0897", "plot": 1, "areaHa": 0.206, "treesRegistered": 166, "deliveries": [{"season": "2022/23", "kgCherry": 188}, {"season": "2023/24", "kgCherry": 216}, {"season": "2024/25", "kgCherry": 258}, {"season": "2025/26", "kgCherry": 259}], "synthetic": true}}, {"type": "Feature", "geometry": {"type": "Polygon", "coordinates": [[[37.052675, -0.452785], [37.05251, -0.451902], [37.052042, -0.451986], [37.052166, -0.452932], [37.052675, -0.452785]]]}, "properties": {"plotId": "OCC0167-1", "memberId": "OCC0167", "plot": 1, "areaHa": 0.57, "treesRegistered": 623, "deliveries": [{"season": "2022/23", "kgCherry": 1698}, {"season": "2023/24", "kgCherry": 1784}, {"season": "2024/25", "kgCherry": 2215}, {"season": "2025/26", "kgCherry": 1491}], "synthetic": true}}, {"type": "Feature", "geometry": {"type": "Polygon", "coordinates": [[[37.064591, -0.453394], [37.065142, -0.45336], [37.065051, -0.452973], [37.064551, -0.452984], [37.064591, -0.453394]]]}, "properties": {"plotId": "OCC0213-1", "memberId": "OCC0213", "plot": 1, "areaHa": 0.26, "treesRegistered": 212, "deliveries": [{"season": "2022/23", "kgCherry": 795}, {"season": "2023/24", "kgCherry": 663}, {"season": "2024/25", "kgCherry": 1078}, {"season": "2025/26", "kgCherry": 592}], "synthetic": true}}, {"type": "Feature", "geometry": {"type": "Polygon", "coordinates": [[[37.059732, -0.463553], [37.059601, -0.463013], [37.058982, -0.463042], [37.059109, -0.463666], [37.059732, -0.463553]]]}, "properties": {"plotId": "OCC0213-2", "memberId": "OCC0213", "plot": 2, "areaHa": 0.457, "treesRegistered": 370, "deliveries": [{"season": "2022/23", "kgCherry": 1025}, {"season": "2023/24", "kgCherry": 1574}, {"season": "2024/25", "kgCherry": 1441}, {"season": "2025/26", "kgCherry": 1201}], "synthetic": true}}, {"type": "Feature", "geometry": {"type": "Polygon", "coordinates": [[[37.082785, -0.44325], [37.082439, -0.443013], [37.082208, -0.44331], [37.08254, -0.443541], [37.082785, -0.44325]]]}, "properties": {"plotId": "OCC0480-1", "memberId": "OCC0480", "plot": 1, "areaHa": 0.191, "treesRegistered": 196, "deliveries": [{"season": "2022/23", "kgCherry": 248}, {"season": "2023/24", "kgCherry": 304}, {"season": "2024/25", "kgCherry": 285}, {"season": "2025/26", "kgCherry": 351}], "synthetic": true}}, {"type": "Feature", "geometry": {"type": "Polygon", "coordinates": [[[37.081999, -0.471736], [37.081998, -0.471242], [37.081706, -0.471262], [37.081738, -0.471743], [37.081999, -0.471736]]]}, "properties": {"plotId": "OCC0460-1", "memberId": "OCC0460", "plot": 1, "areaHa": 0.166, "treesRegistered": 198, "deliveries": [{"season": "2022/23", "kgCherry": 368}, {"season": "2023/24", "kgCherry": 419}, {"season": "2024/25", "kgCherry": 504}, {"season": "2025/26", "kgCherry": 394}], "synthetic": true}}, {"type": "Feature", "geometry": {"type": "Polygon", "coordinates": [[[37.073359, -0.444302], [37.072812, -0.443462], [37.072452, -0.443717], [37.073009, -0.44449], [37.073359, -0.444302]]]}, "properties": {"plotId": "OCC0460-2", "memberId": "OCC0460", "plot": 2, "areaHa": 0.502, "treesRegistered": 595, "deliveries": [{"season": "2022/23", "kgCherry": 1778}, {"season": "2023/24", "kgCherry": 1869}, {"season": "2024/25", "kgCherry": 2341}, {"season": "2025/26", "kgCherry": 1607}], "synthetic": true}}, {"type": "Feature", "geometry": {"type": "Polygon", "coordinates": [[[37.084865, -0.454026], [37.085187, -0.453931], [37.085087, -0.453511], [37.084735, -0.453618], [37.084865, -0.454026]]]}, "properties": {"plotId": "OCC0970-1", "memberId": "OCC0970", "plot": 1, "areaHa": 0.186, "treesRegistered": 161, "deliveries": [{"season": "2022/23", "kgCherry": 305}, {"season": "2023/24", "kgCherry": 377}, {"season": "2024/25", "kgCherry": 377}, {"season": "2025/26", "kgCherry": 292}], "synthetic": true}}, {"type": "Feature", "geometry": {"type": "Polygon", "coordinates": [[[37.086601, -0.455329], [37.087192, -0.455231], [37.087066, -0.454563], [37.086555, -0.454597], [37.086601, -0.455329]]]}, "properties": {"plotId": "OCC0307-1", "memberId": "OCC0307", "plot": 1, "areaHa": 0.482, "treesRegistered": 392, "deliveries": [{"season": "2024/25", "kgCherry": 1167}, {"season": "2025/26", "kgCherry": 966}], "synthetic": true}}, {"type": "Feature", "geometry": {"type": "Polygon", "coordinates": [[[37.058462, -0.476203], [37.058428, -0.475517], [37.057714, -0.47562], [37.057841, -0.476305], [37.058462, -0.476203]]]}, "properties": {"plotId": "OCC0378-1", "memberId": "OCC0378", "plot": 1, "areaHa": 0.574, "treesRegistered": 690, "deliveries": [{"season": "2022/23", "kgCherry": 1526}, {"season": "2023/24", "kgCherry": 1941}, {"season": "2024/25", "kgCherry": 1995}, {"season": "2025/26", "kgCherry": 1683}], "synthetic": true}}, {"type": "Feature", "geometry": {"type": "Polygon", "coordinates": [[[37.076739, -0.452372], [37.076023, -0.452314], [37.075961, -0.452772], [37.076725, -0.452893], [37.076739, -0.452372]]]}, "properties": {"plotId": "OCC0378-2", "memberId": "OCC0378", "plot": 2, "areaHa": 0.45, "treesRegistered": 410, "deliveries": [{"season": "2022/23", "kgCherry": 1053}, {"season": "2023/24", "kgCherry": 1351}, {"season": "2024/25", "kgCherry": 1162}, {"season": "2025/26", "kgCherry": null}], "synthetic": true}}, {"type": "Feature", "geometry": {"type": "Polygon", "coordinates": [[[37.072736, -0.456092], [37.073313, -0.455547], [37.073045, -0.455201], [37.072449, -0.455774], [37.072736, -0.456092]]]}, "properties": {"plotId": "OCC0378-3", "memberId": "OCC0378", "plot": 3, "areaHa": 0.431, "treesRegistered": 557, "deliveries": [{"season": "2022/23", "kgCherry": 1311}, {"season": "2023/24", "kgCherry": 1483}, {"season": "2024/25", "kgCherry": 1867}, {"season": "2025/26", "kgCherry": 1412}], "synthetic": true}}, {"type": "Feature", "geometry": {"type": "Polygon", "coordinates": [[[37.053971, -0.450351], [37.054533, -0.449657], [37.054182, -0.449359], [37.053592, -0.450012], [37.053971, -0.450351]]]}, "properties": {"plotId": "OCC0378-4", "memberId": "OCC0378", "plot": 4, "areaHa": 0.529, "treesRegistered": 538, "deliveries": [{"season": "2022/23", "kgCherry": 2186}, {"season": "2023/24", "kgCherry": 2868}, {"season": "2024/25", "kgCherry": 2646}, {"season": "2025/26", "kgCherry": 8216}], "synthetic": true}}, {"type": "Feature", "geometry": {"type": "Polygon", "coordinates": [[[37.082441, -0.453222], [37.083143, -0.453156], [37.083132, -0.452746], [37.082357, -0.452793], [37.082441, -0.453222]]]}, "properties": {"plotId": "OCC0378-5", "memberId": "OCC0378", "plot": 5, "areaHa": 0.385, "treesRegistered": 491, "deliveries": [{"season": "2022/23", "kgCherry": 1251}, {"season": "2023/24", "kgCherry": 1481}, {"season": "2024/25", "kgCherry": 1693}, {"season": "2025/26", "kgCherry": 1525}], "synthetic": true}}, {"type": "Feature", "geometry": {"type": "Polygon", "coordinates": [[[37.060676, -0.475653], [37.06153, -0.475303], [37.061105, -0.474692], [37.060334, -0.47504], [37.060676, -0.475653]]]}, "properties": {"plotId": "OCC0462-1", "memberId": "OCC0462", "plot": 1, "areaHa": 0.777, "treesRegistered": 988, "deliveries": [{"season": "2022/23", "kgCherry": 2874}, {"season": "2023/24", "kgCherry": 2759}, {"season": "2024/25", "kgCherry": 2871}, {"season": "2025/26", "kgCherry": 2311}], "synthetic": true}}, {"type": "Feature", "geometry": {"type": "Polygon", "coordinates": [[[37.062421, -0.476388], [37.062431, -0.47536], [37.061449, -0.475492], [37.061439, -0.476403], [37.062421, -0.476388]]]}, "properties": {"plotId": "OCC0439-1", "memberId": "OCC0439", "plot": 1, "areaHa": 1.17, "treesRegistered": 944, "deliveries": [{"season": "2022/23", "kgCherry": 3485}, {"season": "2023/24", "kgCherry": 3891}, {"season": "2024/25", "kgCherry": 3382}, {"season": "2025/26", "kgCherry": 2983}], "synthetic": true}}, {"type": "Feature", "geometry": {"type": "Polygon", "coordinates": [[[37.054261, -0.465181], [37.053767, -0.465086], [37.053671, -0.465817], [37.054236, -0.465836], [37.054261, -0.465181]]]}, "properties": {"plotId": "OCC0643-1", "memberId": "OCC0643", "plot": 1, "areaHa": 0.456, "treesRegistered": 361, "deliveries": [{"season": "2022/23", "kgCherry": 1103}, {"season": "2023/24", "kgCherry": 1094}, {"season": "2024/25", "kgCherry": 938}, {"season": "2025/26", "kgCherry": 904}], "synthetic": true}}, {"type": "Feature", "geometry": {"type": "Polygon", "coordinates": [[[37.073031, -0.460708], [37.07223, -0.460406], [37.072084, -0.460884], [37.07287, -0.461096], [37.073031, -0.460708]]]}, "properties": {"plotId": "OCC0384-1", "memberId": "OCC0384", "plot": 1, "areaHa": 0.471, "treesRegistered": 464, "deliveries": [{"season": "2022/23", "kgCherry": 932}, {"season": "2023/24", "kgCherry": 1308}, {"season": "2024/25", "kgCherry": 1092}, {"season": "2025/26", "kgCherry": 902}], "synthetic": true}}, {"type": "Feature", "geometry": {"type": "Polygon", "coordinates": [[[37.069466, -0.463989], [37.069037, -0.463349], [37.068702, -0.463551], [37.069072, -0.464234], [37.069466, -0.463989]]]}, "properties": {"plotId": "OCC0726-1", "memberId": "OCC0726", "plot": 1, "areaHa": 0.407, "treesRegistered": 426, "deliveries": [{"season": "2022/23", "kgCherry": 1121}, {"season": "2023/24", "kgCherry": 1644}, {"season": "2024/25", "kgCherry": 1597}, {"season": "2025/26", "kgCherry": 1214}], "synthetic": true}}, {"type": "Feature", "geometry": {"type": "Polygon", "coordinates": [[[37.059757, -0.476556], [37.059104, -0.475817], [37.058729, -0.476057], [37.059406, -0.476853], [37.059757, -0.476556]]]}, "properties": {"plotId": "OCC0805-1", "memberId": "OCC0805", "plot": 1, "areaHa": 0.564, "treesRegistered": 487, "deliveries": [{"season": "2022/23", "kgCherry": 1324}, {"season": "2023/24", "kgCherry": 1845}, {"season": "2024/25", "kgCherry": 1679}, {"season": "2025/26", "kgCherry": 1261}], "synthetic": true}}, {"type": "Feature", "geometry": {"type": "Polygon", "coordinates": [[[37.053006, -0.471755], [37.052231, -0.471764], [37.052215, -0.472503], [37.052982, -0.472723], [37.053006, -0.471755]]]}, "properties": {"plotId": "OCC0694-1", "memberId": "OCC0694", "plot": 1, "areaHa": 0.812, "treesRegistered": 803, "deliveries": [{"season": "2022/23", "kgCherry": 1275}, {"season": "2023/24", "kgCherry": 1159}, {"season": "2024/25", "kgCherry": 1369}, {"season": "2025/26", "kgCherry": 455}], "synthetic": true}}, {"type": "Feature", "geometry": {"type": "Polygon", "coordinates": [[[37.083948, -0.457524], [37.083975, -0.457202], [37.08381, -0.457194], [37.083794, -0.457542], [37.083948, -0.457524]]]}, "properties": {"plotId": "OCC0452-1", "memberId": "OCC0452", "plot": 1, "areaHa": 0.066, "treesRegistered": 53, "deliveries": [{"season": "2022/23", "kgCherry": 131}, {"season": "2023/24", "kgCherry": 185}, {"season": "2024/25", "kgCherry": 162}, {"season": "2025/26", "kgCherry": 85}], "synthetic": true}}, {"type": "Feature", "geometry": {"type": "Polygon", "coordinates": [[[37.086743, -0.451963], [37.086499, -0.451382], [37.085948, -0.451641], [37.086162, -0.452159], [37.086743, -0.451963]]]}, "properties": {"plotId": "OCC0943-1", "memberId": "OCC0943", "plot": 1, "areaHa": 0.447, "treesRegistered": 364, "deliveries": [{"season": "2022/23", "kgCherry": 1046}, {"season": "2023/24", "kgCherry": 1196}, {"season": "2024/25", "kgCherry": 1472}, {"season": "2025/26", "kgCherry": 962}], "synthetic": true}}, {"type": "Feature", "geometry": {"type": "Polygon", "coordinates": [[[37.069714, -0.453494], [37.070204, -0.45329], [37.070081, -0.453052], [37.069609, -0.453222], [37.069714, -0.453494]]]}, "properties": {"plotId": "OCC0943-2", "memberId": "OCC0943", "plot": 2, "areaHa": 0.177, "treesRegistered": 190, "deliveries": [{"season": "2022/23", "kgCherry": 705}, {"season": "2023/24", "kgCherry": 756}, {"season": "2024/25", "kgCherry": 738}, {"season": "2025/26", "kgCherry": 939}], "synthetic": true}}, {"type": "Feature", "geometry": {"type": "Polygon", "coordinates": [[[37.073265, -0.450491], [37.073555, -0.449917], [37.072932, -0.449599], [37.072659, -0.450108], [37.073265, -0.450491]]]}, "properties": {"plotId": "OCC0383-1", "memberId": "OCC0383", "plot": 1, "areaHa": 0.531, "treesRegistered": 558, "deliveries": [{"season": "2022/23", "kgCherry": 1115}, {"season": "2023/24", "kgCherry": 1190}, {"season": "2024/25", "kgCherry": 1668}, {"season": "2025/26", "kgCherry": 1140}], "synthetic": true}}, {"type": "Feature", "geometry": {"type": "Polygon", "coordinates": [[[37.074828, -0.443173], [37.07525, -0.442409], [37.074788, -0.442207], [37.074362, -0.442888], [37.074828, -0.443173]]]}, "properties": {"plotId": "OCC0239-1", "memberId": "OCC0239", "plot": 1, "areaHa": 0.54, "treesRegistered": 581, "deliveries": [{"season": "2022/23", "kgCherry": 1276}, {"season": "2023/24", "kgCherry": 1189}, {"season": "2024/25", "kgCherry": 1176}, {"season": "2025/26", "kgCherry": 1156}], "synthetic": true}}, {"type": "Feature", "geometry": {"type": "Polygon", "coordinates": [[[37.059288, -0.453001], [37.05977, -0.452831], [37.059638, -0.452515], [37.059137, -0.452721], [37.059288, -0.453001]]]}, "properties": {"plotId": "OCC0405-1", "memberId": "OCC0405", "plot": 1, "areaHa": 0.213, "treesRegistered": 197, "deliveries": [{"season": "2022/23", "kgCherry": 471}, {"season": "2023/24", "kgCherry": 382}, {"season": "2024/25", "kgCherry": 533}, {"season": "2025/26", "kgCherry": 353}], "synthetic": true}}, {"type": "Feature", "geometry": {"type": "Polygon", "coordinates": [[[37.053377, -0.458725], [37.054129, -0.458507], [37.053849, -0.45779], [37.053184, -0.458025], [37.053377, -0.458725]]]}, "properties": {"plotId": "OCC0790-1", "memberId": "OCC0790", "plot": 1, "areaHa": 0.684, "treesRegistered": 848, "deliveries": [{"season": "2022/23", "kgCherry": 1865}, {"season": "2023/24", "kgCherry": 2351}, {"season": "2024/25", "kgCherry": 2426}, {"season": "2025/26", "kgCherry": 1599}], "synthetic": true}}, {"type": "Feature", "geometry": {"type": "Polygon", "coordinates": [[[37.059136, -0.479359], [37.058652, -0.4781], [37.058044, -0.478379], [37.058535, -0.479612], [37.059136, -0.479359]]]}, "properties": {"plotId": "OCC0376-1", "memberId": "OCC0376", "plot": 1, "areaHa": 1.087, "treesRegistered": 1202, "deliveries": [{"season": "2022/23", "kgCherry": 3099}, {"season": "2023/24", "kgCherry": 4417}, {"season": "2024/25", "kgCherry": 4726}, {"season": "2025/26", "kgCherry": 3596}], "synthetic": true}}, {"type": "Feature", "geometry": {"type": "Polygon", "coordinates": [[[37.055938, -0.469511], [37.056774, -0.469224], [37.056644, -0.468816], [37.055814, -0.469111], [37.055938, -0.469511]]]}, "properties": {"plotId": "OCC0376-2", "memberId": "OCC0376", "plot": 2, "areaHa": 0.46, "treesRegistered": 566, "deliveries": [{"season": "2022/23", "kgCherry": 1071}, {"season": "2023/24", "kgCherry": 1362}, {"season": "2024/25", "kgCherry": 1343}, {"season": "2025/26", "kgCherry": 469}], "synthetic": true}}, {"type": "Feature", "geometry": {"type": "Polygon", "coordinates": [[[37.07267, -0.462465], [37.072124, -0.46245], [37.072066, -0.462867], [37.072609, -0.462948], [37.07267, -0.462465]]]}, "properties": {"plotId": "OCC0218-1", "memberId": "OCC0218", "plot": 1, "areaHa": 0.305, "treesRegistered": 370, "deliveries": [{"season": "2022/23", "kgCherry": 925}, {"season": "2023/24", "kgCherry": 949}, {"season": "2024/25", "kgCherry": 1347}, {"season": "2025/26", "kgCherry": 1274}], "synthetic": true}}, {"type": "Feature", "geometry": {"type": "Polygon", "coordinates": [[[37.083036, -0.446362], [37.083077, -0.445576], [37.082448, -0.445528], [37.082432, -0.446372], [37.083036, -0.446362]]]}, "properties": {"plotId": "OCC0848-1", "memberId": "OCC0848", "plot": 1, "areaHa": 0.619, "treesRegistered": 762, "deliveries": [{"season": "2024/25", "kgCherry": 1999}, {"season": "2025/26", "kgCherry": 1536}], "synthetic": true}}, {"type": "Feature", "geometry": {"type": "Polygon", "coordinates": [[[37.083844, -0.447859], [37.084592, -0.447731], [37.084522, -0.447439], [37.083794, -0.447556], [37.083844, -0.447859]]]}, "properties": {"plotId": "OCC0319-1", "memberId": "OCC0319", "plot": 1, "areaHa": 0.28, "treesRegistered": 333, "deliveries": [{"season": "2022/23", "kgCherry": 410}, {"season": "2023/24", "kgCherry": 715}, {"season": "2024/25", "kgCherry": 567}, {"season": "2025/26", "kgCherry": 526}], "synthetic": true}}, {"type": "Feature", "geometry": {"type": "Polygon", "coordinates": [[[37.078714, -0.443384], [37.079389, -0.442479], [37.078863, -0.442191], [37.078191, -0.442992], [37.078714, -0.443384]]]}, "properties": {"plotId": "OCC0893-1", "memberId": "OCC0893", "plot": 1, "areaHa": 0.832, "treesRegistered": 703, "deliveries": [{"season": "2022/23", "kgCherry": 1650}, {"season": "2023/24", "kgCherry": 1423}, {"season": "2024/25", "kgCherry": 1619}, {"season": "2025/26", "kgCherry": 2237}], "synthetic": true}}, {"type": "Feature", "geometry": {"type": "Polygon", "coordinates": [[[37.054411, -0.453427], [37.054009, -0.4531], [37.053664, -0.45355], [37.054177, -0.453845], [37.054411, -0.453427]]]}, "properties": {"plotId": "OCC0893-2", "memberId": "OCC0893", "plot": 2, "areaHa": 0.355, "treesRegistered": 457, "deliveries": [{"season": "2022/23", "kgCherry": 718}, {"season": "2023/24", "kgCherry": 1262}, {"season": "2024/25", "kgCherry": 846}, {"season": "2025/26", "kgCherry": 752}], "synthetic": true}}, {"type": "Feature", "geometry": {"type": "Polygon", "coordinates": [[[37.050898, -0.45627], [37.051245, -0.456044], [37.050983, -0.455801], [37.050683, -0.456068], [37.050898, -0.45627]]]}, "properties": {"plotId": "OCC0413-1", "memberId": "OCC0413", "plot": 1, "areaHa": 0.161, "treesRegistered": 143, "deliveries": [{"season": "2022/23", "kgCherry": 473}, {"season": "2023/24", "kgCherry": 617}, {"season": "2024/25", "kgCherry": 481}, {"season": "2025/26", "kgCherry": 255}], "synthetic": true}}, {"type": "Feature", "geometry": {"type": "Polygon", "coordinates": [[[37.076177, -0.447475], [37.075342, -0.447358], [37.075265, -0.447732], [37.076088, -0.447826], [37.076177, -0.447475]]]}, "properties": {"plotId": "OCC0281-1", "memberId": "OCC0281", "plot": 1, "areaHa": 0.381, "treesRegistered": 364, "deliveries": [{"season": "2022/23", "kgCherry": 689}, {"season": "2023/24", "kgCherry": 777}, {"season": "2024/25", "kgCherry": 729}, {"season": "2025/26", "kgCherry": 723}], "synthetic": true}}, {"type": "Feature", "geometry": {"type": "Polygon", "coordinates": [[[37.069259, -0.465285], [37.069556, -0.464978], [37.069316, -0.464602], [37.068934, -0.464928], [37.069259, -0.465285]]]}, "properties": {"plotId": "OCC0281-2", "memberId": "OCC0281", "plot": 2, "areaHa": 0.263, "treesRegistered": 247, "deliveries": [{"season": "2022/23", "kgCherry": 779}, {"season": "2023/24", "kgCherry": 818}, {"season": "2024/25", "kgCherry": 856}, {"season": "2025/26", "kgCherry": 699}], "synthetic": true}}, {"type": "Feature", "geometry": {"type": "Polygon", "coordinates": [[[37.084601, -0.466367], [37.084455, -0.465598], [37.084066, -0.465663], [37.084274, -0.466474], [37.084601, -0.466367]]]}, "properties": {"plotId": "OCC0836-1", "memberId": "OCC0836", "plot": 1, "areaHa": 0.367, "treesRegistered": 313, "deliveries": [{"season": "2022/23", "kgCherry": 720}, {"season": "2023/24", "kgCherry": 757}, {"season": "2024/25", "kgCherry": 854}, {"season": "2025/26", "kgCherry": 505}], "synthetic": true}}, {"type": "Feature", "geometry": {"type": "Polygon", "coordinates": [[[37.053716, -0.472285], [37.053889, -0.471725], [37.053389, -0.471508], [37.053234, -0.472118], [37.053716, -0.472285]]]}, "properties": {"plotId": "OCC0322-1", "memberId": "OCC0322", "plot": 1, "areaHa": 0.392, "treesRegistered": 431, "deliveries": [{"season": "2022/23", "kgCherry": 467}, {"season": "2023/24", "kgCherry": 589}, {"season": "2024/25", "kgCherry": 687}, {"season": "2025/26", "kgCherry": 735}], "synthetic": true}}, {"type": "Feature", "geometry": {"type": "Polygon", "coordinates": [[[37.084086, -0.442887], [37.083689, -0.442275], [37.083345, -0.442497], [37.083818, -0.443085], [37.084086, -0.442887]]]}, "properties": {"plotId": "OCC0606-1", "memberId": "OCC0606", "plot": 1, "areaHa": 0.339, "treesRegistered": 402, "deliveries": [{"season": "2022/23", "kgCherry": 1018}, {"season": "2023/24", "kgCherry": 1170}, {"season": "2024/25", "kgCherry": 1180}, {"season": "2025/26", "kgCherry": 893}], "synthetic": true}}, {"type": "Feature", "geometry": {"type": "Polygon", "coordinates": [[[37.068604, -0.459848], [37.067693, -0.45981], [37.067652, -0.460251], [37.068564, -0.460288], [37.068604, -0.459848]]]}, "properties": {"plotId": "OCC0606-2", "memberId": "OCC0606", "plot": 2, "areaHa": 0.497, "treesRegistered": 402, "deliveries": [{"season": "2022/23", "kgCherry": 952}, {"season": "2023/24", "kgCherry": 1154}, {"season": "2024/25", "kgCherry": 1237}, {"season": "2025/26", "kgCherry": 1151}], "synthetic": true}}, {"type": "Feature", "geometry": {"type": "Polygon", "coordinates": [[[37.060662, -0.476569], [37.060446, -0.476404], [37.060224, -0.476743], [37.060464, -0.476934], [37.060662, -0.476569]]]}, "properties": {"plotId": "OCC0953-1", "memberId": "OCC0953", "plot": 1, "areaHa": 0.145, "treesRegistered": 143, "deliveries": [{"season": "2022/23", "kgCherry": 452}, {"season": "2023/24", "kgCherry": 583}, {"season": "2024/25", "kgCherry": 504}, {"season": "2025/26", "kgCherry": 251}], "synthetic": true}}, {"type": "Feature", "geometry": {"type": "Polygon", "coordinates": [[[37.062051, -0.460769], [37.062169, -0.460023], [37.061756, -0.46001], [37.061602, -0.460754], [37.062051, -0.460769]]]}, "properties": {"plotId": "OCC0761-1", "memberId": "OCC0761", "plot": 1, "areaHa": 0.397, "treesRegistered": 331, "deliveries": [{"season": "2022/23", "kgCherry": 987}, {"season": "2023/24", "kgCherry": 1540}, {"season": "2024/25", "kgCherry": 1419}, {"season": "2025/26", "kgCherry": 915}], "synthetic": true}}, {"type": "Feature", "geometry": {"type": "Polygon", "coordinates": [[[37.058323, -0.46822], [37.058077, -0.467699], [37.057684, -0.467858], [37.057888, -0.468405], [37.058323, -0.46822]]]}, "properties": {"plotId": "OCC0374-1", "memberId": "OCC0374", "plot": 1, "areaHa": 0.32, "treesRegistered": 380, "deliveries": [{"season": "2022/23", "kgCherry": 1067}, {"season": "2023/24", "kgCherry": 1495}, {"season": "2024/25", "kgCherry": 1075}, {"season": "2025/26", "kgCherry": 1065}], "synthetic": true}}, {"type": "Feature", "geometry": {"type": "Polygon", "coordinates": [[[37.054903, -0.463275], [37.055392, -0.462677], [37.055139, -0.462439], [37.05463, -0.463054], [37.054903, -0.463275]]]}, "properties": {"plotId": "OCC0965-1", "memberId": "OCC0965", "plot": 1, "areaHa": 0.338, "treesRegistered": 316, "deliveries": [{"season": "2022/23", "kgCherry": 642}, {"season": "2023/24", "kgCherry": 680}, {"season": "2024/25", "kgCherry": 823}, {"season": "2025/26", "kgCherry": 223}], "synthetic": true}}, {"type": "Feature", "geometry": {"type": "Polygon", "coordinates": [[[37.073203, -0.466666], [37.072803, -0.466595], [37.072654, -0.46698], [37.073112, -0.467115], [37.073203, -0.466666]]]}, "properties": {"plotId": "OCC0690-1", "memberId": "OCC0690", "plot": 1, "areaHa": 0.235, "treesRegistered": 298, "deliveries": [{"season": "2022/23", "kgCherry": 667}, {"season": "2023/24", "kgCherry": 1137}, {"season": "2024/25", "kgCherry": 732}, {"season": "2025/26", "kgCherry": 721}], "synthetic": true}}, {"type": "Feature", "geometry": {"type": "Polygon", "coordinates": [[[37.073592, -0.476235], [37.073741, -0.475676], [37.072992, -0.475444], [37.072845, -0.476093], [37.073592, -0.476235]]]}, "properties": {"plotId": "OCC0404-1", "memberId": "OCC0404", "plot": 1, "areaHa": 0.591, "treesRegistered": 744, "deliveries": [{"season": "2022/23", "kgCherry": 1583}, {"season": "2023/24", "kgCherry": 2383}, {"season": "2024/25", "kgCherry": 1118}, {"season": "2025/26", "kgCherry": 1463}], "synthetic": true}}, {"type": "Feature", "geometry": {"type": "Polygon", "coordinates": [[[37.07498, -0.456059], [37.074172, -0.455954], [37.074102, -0.456765], [37.074911, -0.456785], [37.07498, -0.456059]]]}, "properties": {"plotId": "OCC0468-1", "memberId": "OCC0468", "plot": 1, "areaHa": 0.77, "treesRegistered": 634, "deliveries": [{"season": "2022/23", "kgCherry": 953}, {"season": "2023/24", "kgCherry": 1443}, {"season": "2024/25", "kgCherry": 1324}, {"season": "2025/26", "kgCherry": 970}], "synthetic": true}}, {"type": "Feature", "geometry": {"type": "Polygon", "coordinates": [[[37.057222, -0.4768], [37.057221, -0.475869], [37.056649, -0.47589], [37.056658, -0.476715], [37.057222, -0.4768]]]}, "properties": {"plotId": "OCC0578-1", "memberId": "OCC0578", "plot": 1, "areaHa": 0.613, "treesRegistered": 666, "deliveries": [{"season": "2022/23", "kgCherry": 1252}, {"season": "2023/24", "kgCherry": 1419}, {"season": "2024/25", "kgCherry": 1331}, {"season": "2025/26", "kgCherry": 1218}], "synthetic": true}}, {"type": "Feature", "geometry": {"type": "Polygon", "coordinates": [[[37.057855, -0.468666], [37.057231, -0.468703], [37.057153, -0.469073], [37.057814, -0.469147], [37.057855, -0.468666]]]}, "properties": {"plotId": "OCC0995-1", "memberId": "OCC0995", "plot": 1, "areaHa": 0.338, "treesRegistered": 416, "deliveries": [{"season": "2022/23", "kgCherry": 1146}, {"season": "2023/24", "kgCherry": 1277}, {"season": "2024/25", "kgCherry": 1321}, {"season": "2025/26", "kgCherry": 1172}], "synthetic": true}}, {"type": "Feature", "geometry": {"type": "Polygon", "coordinates": [[[37.0882, -0.447458], [37.08755, -0.446924], [37.08731, -0.447207], [37.087962, -0.44777], [37.0882, -0.447458]]]}, "properties": {"plotId": "OCC0443-1", "memberId": "OCC0443", "plot": 1, "areaHa": 0.4, "treesRegistered": 489, "deliveries": [{"season": "2022/23", "kgCherry": 1137}, {"season": "2023/24", "kgCherry": 1352}, {"season": "2024/25", "kgCherry": 1092}, {"season": "2025/26", "kgCherry": 900}], "synthetic": true}}, {"type": "Feature", "geometry": {"type": "Polygon", "coordinates": [[[37.083555, -0.444717], [37.082512, -0.444573], [37.082498, -0.445321], [37.083415, -0.445429], [37.083555, -0.444717]]]}, "properties": {"plotId": "OCC0443-2", "memberId": "OCC0443", "plot": 2, "areaHa": 0.893, "treesRegistered": 922, "deliveries": [{"season": "2022/23", "kgCherry": 2760}, {"season": "2023/24", "kgCherry": 4930}, {"season": "2024/25", "kgCherry": 3193}, {"season": "2025/26", "kgCherry": 2911}], "synthetic": true}}, {"type": "Feature", "geometry": {"type": "Polygon", "coordinates": [[[37.067771, -0.461399], [37.068175, -0.461417], [37.068152, -0.460686], [37.067727, -0.460692], [37.067771, -0.461399]]]}, "properties": {"plotId": "OCC0443-3", "memberId": "OCC0443", "plot": 3, "areaHa": 0.366, "treesRegistered": 414, "deliveries": [{"season": "2022/23", "kgCherry": 1445}, {"season": "2023/24", "kgCherry": 1823}, {"season": "2024/25", "kgCherry": 1121}, {"season": "2025/26", "kgCherry": 1055}], "synthetic": true}}, {"type": "Feature", "geometry": {"type": "Polygon", "coordinates": [[[37.081952, -0.4775], [37.082583, -0.476531], [37.081866, -0.476234], [37.08122, -0.477259], [37.081952, -0.4775]]]}, "properties": {"plotId": "OCC0328-1", "memberId": "OCC0328", "plot": 1, "areaHa": 1.101, "treesRegistered": 1378, "deliveries": [{"season": "2022/23", "kgCherry": 2253}, {"season": "2023/24", "kgCherry": 5808}, {"season": "2024/25", "kgCherry": 3348}, {"season": "2025/26", "kgCherry": 2595}], "synthetic": true}}, {"type": "Feature", "geometry": {"type": "Polygon", "coordinates": [[[37.052899, -0.469911], [37.052602, -0.469497], [37.052336, -0.469658], [37.052608, -0.470122], [37.052899, -0.469911]]]}, "properties": {"plotId": "OCC0109-1", "memberId": "OCC0109", "plot": 1, "areaHa": 0.216, "treesRegistered": 220, "deliveries": [{"season": "2022/23", "kgCherry": 381}, {"season": "2023/24", "kgCherry": 400}, {"season": "2024/25", "kgCherry": 389}, {"season": "2025/26", "kgCherry": 339}], "synthetic": true}}, {"type": "Feature", "geometry": {"type": "Polygon", "coordinates": [[[37.073961, -0.460957], [37.073258, -0.460734], [37.073179, -0.461122], [37.073829, -0.461332], [37.073961, -0.460957]]]}, "properties": {"plotId": "OCC0109-2", "memberId": "OCC0109", "plot": 2, "areaHa": 0.346, "treesRegistered": 415, "deliveries": [{"season": "2022/23", "kgCherry": 761}, {"season": "2023/24", "kgCherry": 968}, {"season": "2024/25", "kgCherry": 844}, {"season": "2025/26", "kgCherry": 970}], "synthetic": true}}, {"type": "Feature", "geometry": {"type": "Polygon", "coordinates": [[[37.08675, -0.448342], [37.08757, -0.447905], [37.087329, -0.447488], [37.086529, -0.447939], [37.08675, -0.448342]]]}, "properties": {"plotId": "OCC0158-1", "memberId": "OCC0158", "plot": 1, "areaHa": 0.535, "treesRegistered": 549, "deliveries": [{"season": "2022/23", "kgCherry": 1539}, {"season": "2023/24", "kgCherry": 1938}, {"season": "2024/25", "kgCherry": 1471}, {"season": "2025/26", "kgCherry": 3772}], "synthetic": true}}, {"type": "Feature", "geometry": {"type": "Polygon", "coordinates": [[[37.069581, -0.45678], [37.069301, -0.45641], [37.069029, -0.456587], [37.069355, -0.456976], [37.069581, -0.45678]]]}, "properties": {"plotId": "OCC0737-1", "memberId": "OCC0737", "plot": 1, "areaHa": 0.186, "treesRegistered": 184, "deliveries": [{"season": "2022/23", "kgCherry": 284}, {"season": "2023/24", "kgCherry": 409}, {"season": "2024/25", "kgCherry": 372}, {"season": "2025/26", "kgCherry": 301}], "synthetic": true}}, {"type": "Feature", "geometry": {"type": "Polygon", "coordinates": [[[37.080071, -0.442345], [37.080684, -0.442245], [37.080632, -0.441503], [37.079997, -0.441511], [37.080071, -0.442345]]]}, "properties": {"plotId": "OCC0627-1", "memberId": "OCC0627", "plot": 1, "areaHa": 0.61, "treesRegistered": 503, "deliveries": [{"season": "2022/23", "kgCherry": 1507}, {"season": "2023/24", "kgCherry": 1571}, {"season": "2024/25", "kgCherry": 1386}, {"season": "2025/26", "kgCherry": 1580}], "synthetic": true}}, {"type": "Feature", "geometry": {"type": "Polygon", "coordinates": [[[37.060399, -0.462738], [37.060473, -0.462015], [37.060188, -0.461936], [37.060006, -0.462647], [37.060399, -0.462738]]]}, "properties": {"plotId": "OCC0629-1", "memberId": "OCC0629", "plot": 1, "areaHa": 0.312, "treesRegistered": 341, "deliveries": [{"season": "2022/23", "kgCherry": 724}, {"season": "2023/24", "kgCherry": 989}, {"season": "2024/25", "kgCherry": 749}, {"season": "2025/26", "kgCherry": 285}], "synthetic": true}}, {"type": "Feature", "geometry": {"type": "Polygon", "coordinates": [[[37.060167, -0.476552], [37.060438, -0.475942], [37.060039, -0.475808], [37.059791, -0.476344], [37.060167, -0.476552]]]}, "properties": {"plotId": "OCC0688-1", "memberId": "OCC0688", "plot": 1, "areaHa": 0.328, "treesRegistered": 329, "deliveries": [{"season": "2022/23", "kgCherry": 1297}, {"season": "2023/24", "kgCherry": 1728}, {"season": "2024/25", "kgCherry": 1636}, {"season": "2025/26", "kgCherry": 1520}], "synthetic": true}}, {"type": "Feature", "geometry": {"type": "Polygon", "coordinates": [[[37.062514, -0.453513], [37.062283, -0.453249], [37.062172, -0.453344], [37.062407, -0.453617], [37.062514, -0.453513]]]}, "properties": {"plotId": "OCC0434-1", "memberId": "OCC0434", "plot": 1, "areaHa": 0.065, "treesRegistered": 77, "deliveries": [{"season": "2022/23", "kgCherry": 158}, {"season": "2023/24", "kgCherry": 218}, {"season": "2024/25", "kgCherry": 201}, {"season": "2025/26", "kgCherry": 81}], "synthetic": true}}, {"type": "Feature", "geometry": {"type": "Polygon", "coordinates": [[[37.056258, -0.450124], [37.056549, -0.449799], [37.056277, -0.449447], [37.055944, -0.449765], [37.056258, -0.450124]]]}, "properties": {"plotId": "OCC0368-1", "memberId": "OCC0368", "plot": 1, "areaHa": 0.253, "treesRegistered": 288, "deliveries": [{"season": "2022/23", "kgCherry": 664}, {"season": "2023/24", "kgCherry": 630}, {"season": "2024/25", "kgCherry": 553}, {"season": "2025/26", "kgCherry": 460}], "synthetic": true}}, {"type": "Feature", "geometry": {"type": "Polygon", "coordinates": [[[37.08081, -0.441296], [37.080678, -0.440585], [37.080376, -0.440648], [37.080523, -0.441354], [37.08081, -0.441296]]]}, "properties": {"plotId": "OCC0230-1", "memberId": "OCC0230", "plot": 1, "areaHa": 0.267, "treesRegistered": 269, "deliveries": [{"season": "2022/23", "kgCherry": 664}, {"season": "2023/24", "kgCherry": 819}, {"season": "2024/25", "kgCherry": 824}, {"season": "2025/26", "kgCherry": 743}], "synthetic": true}}, {"type": "Feature", "geometry": {"type": "Polygon", "coordinates": [[[37.062113, -0.44149], [37.062463, -0.441194], [37.062302, -0.440941], [37.061879, -0.441186], [37.062113, -0.44149]]]}, "properties": {"plotId": "OCC0548-1", "memberId": "OCC0548", "plot": 1, "areaHa": 0.198, "treesRegistered": 243, "deliveries": [{"season": "2022/23", "kgCherry": 373}, {"season": "2023/24", "kgCherry": 505}, {"season": "2024/25", "kgCherry": 442}, {"season": "2025/26", "kgCherry": 315}], "synthetic": true}}, {"type": "Feature", "geometry": {"type": "Polygon", "coordinates": [[[37.052846, -0.46038], [37.052578, -0.459712], [37.052133, -0.459848], [37.052289, -0.460552], [37.052846, -0.46038]]]}, "properties": {"plotId": "OCC0584-1", "memberId": "OCC0584", "plot": 1, "areaHa": 0.463, "treesRegistered": 370, "deliveries": [{"season": "2022/23", "kgCherry": 913}, {"season": "2023/24", "kgCherry": 1330}, {"season": "2024/25", "kgCherry": 1186}, {"season": "2025/26", "kgCherry": 1032}], "synthetic": true}}, {"type": "Feature", "geometry": {"type": "Polygon", "coordinates": [[[37.080946, -0.453761], [37.080123, -0.453013], [37.079675, -0.453427], [37.080517, -0.454277], [37.080946, -0.453761]]]}, "properties": {"plotId": "OCC0617-1", "memberId": "OCC0617", "plot": 1, "areaHa": 0.908, "treesRegistered": 1080, "deliveries": [{"season": "2022/23", "kgCherry": 3616}, {"season": "2023/24", "kgCherry": 3845}, {"season": "2024/25", "kgCherry": 2901}, {"season": "2025/26", "kgCherry": 3410}], "synthetic": true}}, {"type": "Feature", "geometry": {"type": "Polygon", "coordinates": [[[37.056666, -0.458961], [37.057528, -0.458937], [37.057578, -0.458494], [37.056648, -0.458552], [37.056666, -0.458961]]]}, "properties": {"plotId": "OCC0227-1", "memberId": "OCC0227", "plot": 1, "areaHa": 0.469, "treesRegistered": 471, "deliveries": [{"season": "2022/23", "kgCherry": 963}, {"season": "2023/24", "kgCherry": 1344}, {"season": "2024/25", "kgCherry": 870}, {"season": "2025/26", "kgCherry": 891}], "synthetic": true}}, {"type": "Feature", "geometry": {"type": "Polygon", "coordinates": [[[37.054862, -0.478228], [37.054892, -0.477239], [37.054342, -0.477115], [37.054299, -0.478242], [37.054862, -0.478228]]]}, "properties": {"plotId": "OCC0817-1", "memberId": "OCC0817", "plot": 1, "areaHa": 0.727, "treesRegistered": 794, "deliveries": [{"season": "2022/23", "kgCherry": 2130}, {"season": "2023/24", "kgCherry": 2739}, {"season": "2024/25", "kgCherry": 2873}, {"season": "2025/26", "kgCherry": 2562}], "synthetic": true}}, {"type": "Feature", "geometry": {"type": "Polygon", "coordinates": [[[37.081592, -0.445174], [37.082129, -0.444547], [37.081675, -0.444158], [37.081191, -0.444721], [37.081592, -0.445174]]]}, "properties": {"plotId": "OCC0631-1", "memberId": "OCC0631", "plot": 1, "areaHa": 0.578, "treesRegistered": 540, "deliveries": [{"season": "2022/23", "kgCherry": 1323}, {"season": "2023/24", "kgCherry": 1104}, {"season": "2024/25", "kgCherry": 2100}, {"season": "2025/26", "kgCherry": 1638}], "synthetic": true}}, {"type": "Feature", "geometry": {"type": "Polygon", "coordinates": [[[37.071409, -0.461082], [37.071761, -0.46026], [37.070996, -0.459963], [37.07061, -0.460761], [37.071409, -0.461082]]]}, "properties": {"plotId": "OCC0431-1", "memberId": "OCC0431", "plot": 1, "areaHa": 0.921, "treesRegistered": 998, "deliveries": [{"season": "2022/23", "kgCherry": 3183}, {"season": "2023/24", "kgCherry": 3192}, {"season": "2024/25", "kgCherry": 4403}, {"season": "2025/26", "kgCherry": 2887}], "synthetic": true}}, {"type": "Feature", "geometry": {"type": "Polygon", "coordinates": [[[37.064236, -0.442953], [37.063618, -0.442805], [37.063576, -0.443102], [37.064183, -0.443232], [37.064236, -0.442953]]]}, "properties": {"plotId": "OCC0860-1", "memberId": "OCC0860", "plot": 1, "areaHa": 0.225, "treesRegistered": 207, "deliveries": [{"season": "2022/23", "kgCherry": 572}, {"season": "2023/24", "kgCherry": 881}, {"season": "2024/25", "kgCherry": 947}, {"season": "2025/26", "kgCherry": 324}], "synthetic": true}}, {"type": "Feature", "geometry": {"type": "Polygon", "coordinates": [[[37.078139, -0.447718], [37.077305, -0.447365], [37.077151, -0.447743], [37.077986, -0.44815], [37.078139, -0.447718]]]}, "properties": {"plotId": "OCC0860-2", "memberId": "OCC0860", "plot": 2, "areaHa": 0.488, "treesRegistered": 539, "deliveries": [{"season": "2022/23", "kgCherry": 2041}, {"season": "2023/24", "kgCherry": 1962}, {"season": "2024/25", "kgCherry": 1412}, {"season": "2025/26", "kgCherry": 1722}], "synthetic": true}}], "note": "Synthetic registry for the demo. Not real farmers or plots."}