{"type":"FeatureCollection","name":"jani_plots_synthetic","features":[
{"type":"Feature","properties":{"plot_id":"P01","member_id":"OCC0118","area_ha":0.62,"reason":"in_line_with_peers","confidence":"high","synthetic":true},"geometry":{"type":"Polygon","coordinates":[[[36.95747,-0.53707],[36.95807,-0.5371],[36.95832,-0.53686],[36.95806,-0.53635],[36.9577,-0.53631],[36.95747,-0.53669],[36.95747,-0.53707]]]}},
{"type":"Feature","properties":{"plot_id":"P02","member_id":"OCC0233","area_ha":2.44,"reason":"in_line_with_peers","confidence":"high","synthetic":true},"geometry":{"type":"Polygon","coordinates":[[[36.95915,-0.54365],[36.95884,-0.54275],[36.95817,-0.54249],[36.9572,-0.54356],[36.95824,-0.54426],[36.95915,-0.54365]]]}},
{"type":"Feature","properties":{"plot_id":"P03","member_id":"OCC0307","area_ha":0.86,"reason":"in_line_with_peers","confidence":"high","synthetic":true},"geometry":{"type":"Polygon","coordinates":[[[36.95615,-0.54586],[36.95627,-0.54526],[36.95568,-0.54496],[36.95515,-0.54529],[36.95543,-0.54582],[36.95615,-0.54586]]]}},
{"type":"Feature","properties":{"plot_id":"P04","member_id":"OCC0521","area_ha":2.49,"reason":"drop_other_cause_ask_officer","confidence":"high","synthetic":true},"geometry":{"type":"Polygon","coordinates":[[[36.96233,-0.53832],[36.96229,-0.53744],[36.96127,-0.53689],[36.96053,-0.53797],[36.96122,-0.53864],[36.96233,-0.53832]]]}},
{"type":"Feature","properties":{"plot_id":"P05","member_id":"OCC0642","area_ha":1.76,"reason":"canopy_loss_check_leaves","confidence":"high","synthetic":true},"geometry":{"type":"Polygon","coordinates":[[[36.9607,-0.54623],[36.9601,-0.54665],[36.96006,-0.547],[36.96066,-0.54759],[36.96133,-0.54748],[36.96154,-0.54692],[36.96129,-0.54636],[36.9607,-0.54623]]]}},
{"type":"Feature","properties":{"plot_id":"P06","member_id":"OCC0719","area_ha":1.25,"reason":"in_line_with_peers","confidence":"high","synthetic":true},"geometry":{"type":"Polygon","coordinates":[[[36.96038,-0.54024],[36.96091,-0.54021],[36.96123,-0.53963],[36.96072,-0.53902],[36.9603,-0.53926],[36.95987,-0.53981],[36.96038,-0.54024]]]}},
{"type":"Feature","properties":{"plot_id":"P07","member_id":"OCC0412","area_ha":1.26,"reason":"canopy_loss_check_leaves","confidence":"high","synthetic":true},"geometry":{"type":"Polygon","coordinates":[[[36.97918,-0.55297],[36.97963,-0.55259],[36.97959,-0.55202],[36.97909,-0.55171],[36.97851,-0.55193],[36.97862,-0.55272],[36.97918,-0.55297]]]}},
{"type":"Feature","properties":{"plot_id":"P08","member_id":"OCC0855","area_ha":0.51,"reason":"in_line_with_peers","confidence":"high","synthetic":true},"geometry":{"type":"Polygon","coordinates":[[[36.95762,-0.53893],[36.95743,-0.53897],[36.95718,-0.53929],[36.95727,-0.53969],[36.95761,-0.53972],[36.95789,-0.53947],[36.95791,-0.53922],[36.95762,-0.53893]]]}},
{"type":"Feature","properties":{"plot_id":"P09","member_id":"OCC0903","area_ha":2.4,"reason":"in_line_with_peers","confidence":"high","synthetic":true},"geometry":{"type":"Polygon","coordinates":[[[36.98889,-0.5421],[36.98815,-0.5423],[36.98775,-0.54312],[36.98869,-0.54382],[36.9892,-0.54341],[36.98965,-0.54265],[36.98889,-0.5421]]]}},
{"type":"Feature","properties":{"plot_id":"P10","member_id":"OCC0977","area_ha":1.46,"reason":"in_line_with_peers","confidence":"high","synthetic":true},"geometry":{"type":"Polygon","coordinates":[[[36.98411,-0.54381],[36.98414,-0.54436],[36.9848,-0.54473],[36.98525,-0.54428],[36.98548,-0.54379],[36.98496,-0.54334],[36.98411,-0.54381]]]}},
{"type":"Feature","properties":{"plot_id":"P11","member_id":"OCC1004","area_ha":2.39,"reason":"canopy_loss_check_leaves","confidence":"high","synthetic":true},"geometry":{"type":"Polygon","coordinates":[[[36.99268,-0.54079],[36.99283,-0.53945],[36.99179,-0.53946],[36.99115,-0.5401],[36.99159,-0.541],[36.99268,-0.54079]]]}},
{"type":"Feature","properties":{"plot_id":"P12","member_id":"OCC1088","area_ha":2.26,"reason":"in_line_with_peers","confidence":"high","synthetic":true},"geometry":{"type":"Polygon","coordinates":[[[36.98998,-0.5394],[36.98919,-0.53854],[36.98814,-0.53882],[36.98841,-0.53983],[36.9895,-0.54007],[36.98998,-0.5394]]]}},
{"type":"Feature","properties":{"plot_id":"P13","member_id":"OCC1581","area_ha":2.37,"reason":"in_line_with_peers","confidence":"high","synthetic":true},"geometry":{"type":"Polygon","coordinates":[[[36.98552,-0.54028],[36.98456,-0.5401],[36.98418,-0.54084],[36.98409,-0.5414],[36.98504,-0.5419],[36.9856,-0.54126],[36.98552,-0.54028]]]}},
{"type":"Feature","properties":{"plot_id":"P14","member_id":"OCC1618","area_ha":2.02,"reason":"in_line_with_peers","confidence":"high","synthetic":true},"geometry":{"type":"Polygon","coordinates":[[[36.98908,-0.53427],[36.99013,-0.53432],[36.99033,-0.53341],[36.98994,-0.53281],[36.9888,-0.53331],[36.98908,-0.53427]]]}},
{"type":"Feature","properties":{"plot_id":"P15","member_id":"OCC1655","area_ha":0.65,"reason":"canopy_loss_check_leaves","confidence":"high","synthetic":true},"geometry":{"type":"Polygon","coordinates":[[[36.95976,-0.56598],[36.96011,-0.56564],[36.9601,-0.56536],[36.95972,-0.56512],[36.95931,-0.5653],[36.95927,-0.56566],[36.95946,-0.56595],[36.95976,-0.56598]]]}},
{"type":"Feature","properties":{"plot_id":"P16","member_id":"OCC1692","area_ha":2.29,"reason":"in_line_with_peers","confidence":"low","synthetic":true},"geometry":{"type":"Polygon","coordinates":[[[36.98685,-0.53485],[36.98674,-0.53538],[36.98704,-0.53608],[36.98763,-0.53626],[36.98833,-0.53569],[36.98807,-0.53498],[36.98768,-0.5345],[36.98685,-0.53485]]]}},
{"type":"Feature","properties":{"plot_id":"P17","member_id":"OCC1729","area_ha":1.66,"reason":"in_line_with_peers","confidence":"high","synthetic":true},"geometry":{"type":"Polygon","coordinates":[[[36.99067,-0.53724],[36.99017,-0.53743],[36.99016,-0.53822],[36.99079,-0.53851],[36.9914,-0.53829],[36.99138,-0.53726],[36.99067,-0.53724]]]}},
{"type":"Feature","properties":{"plot_id":"P18","member_id":"OCC1766","area_ha":2.19,"reason":"in_line_with_peers","confidence":"high","synthetic":true},"geometry":{"type":"Polygon","coordinates":[[[36.97076,-0.55241],[36.97068,-0.55182],[36.96979,-0.55159],[36.96919,-0.55216],[36.96944,-0.55268],[36.9698,-0.55305],[36.97072,-0.55314],[36.97076,-0.55241]]]}},
{"type":"Feature","properties":{"plot_id":"P19","member_id":"OCC1803","area_ha":0.72,"reason":"in_line_with_peers","confidence":"high","synthetic":true},"geometry":{"type":"Polygon","coordinates":[[[36.97187,-0.55709],[36.9714,-0.55687],[36.97108,-0.55695],[36.97103,-0.55757],[36.97127,-0.55782],[36.97185,-0.55752],[36.97187,-0.55709]]]}},
{"type":"Feature","properties":{"plot_id":"P20","member_id":"OCC1840","area_ha":1.3,"reason":"drop_other_cause_ask_officer","confidence":"high","synthetic":true},"geometry":{"type":"Polygon","coordinates":[[[36.95508,-0.56724],[36.95553,-0.56685],[36.95528,-0.56632],[36.95463,-0.56608],[36.95418,-0.56638],[36.95447,-0.56718],[36.95508,-0.56724]]]}},
{"type":"Feature","properties":{"plot_id":"P21","member_id":"OCC1877","area_ha":0.61,"reason":"in_line_with_peers","confidence":"high","synthetic":true},"geometry":{"type":"Polygon","coordinates":[[[36.97918,-0.56049],[36.97944,-0.56095],[36.97998,-0.56094],[36.98003,-0.56036],[36.97957,-0.56013],[36.97918,-0.56049]]]}},
{"type":"Feature","properties":{"plot_id":"P22","member_id":"OCC1914","area_ha":1.83,"reason":"in_line_with_peers","confidence":"high","synthetic":true},"geometry":{"type":"Polygon","coordinates":[[[36.96916,-0.55747],[36.96925,-0.55665],[36.96853,-0.55653],[36.96812,-0.55658],[36.96781,-0.55714],[36.96795,-0.55783],[36.96886,-0.55773],[36.96916,-0.55747]]]}},
{"type":"Feature","properties":{"plot_id":"P23","member_id":"OCC1951","area_ha":1.12,"reason":"in_line_with_peers","confidence":"high","synthetic":true},"geometry":{"type":"Polygon","coordinates":[[[36.97048,-0.55469],[36.97008,-0.55501],[36.9703,-0.55544],[36.97067,-0.5558],[36.97116,-0.55549],[36.97121,-0.55504],[36.97099,-0.55454],[36.97048,-0.55469]]]}},
{"type":"Feature","properties":{"plot_id":"P24","member_id":"OCC1988","area_ha":0.82,"reason":"in_line_with_peers","confidence":"high","synthetic":true},"geometry":{"type":"Polygon","coordinates":[[[36.96734,-0.55894],[36.96729,-0.55929],[36.96774,-0.55959],[36.96814,-0.55955],[36.96824,-0.55915],[36.96808,-0.55873],[36.96776,-0.55861],[36.96734,-0.55894]]]}},
{"type":"Feature","properties":{"plot_id":"P25","member_id":"OCC2025","area_ha":0.63,"reason":"in_line_with_peers","confidence":"low","synthetic":true},"geometry":{"type":"Polygon","coordinates":[[[36.97978,-0.55547],[36.98011,-0.55582],[36.98051,-0.55549],[36.9806,-0.55513],[36.98021,-0.55484],[36.97991,-0.55496],[36.97978,-0.55547]]]}},
{"type":"Feature","properties":{"plot_id":"P26","member_id":"OCC2062","area_ha":1.25,"reason":"in_line_with_peers","confidence":"high","synthetic":true},"geometry":{"type":"Polygon","coordinates":[[[36.96139,-0.57195],[36.96082,-0.57198],[36.96079,-0.57308],[36.96137,-0.57316],[36.96196,-0.57256],[36.96139,-0.57195]]]}},
{"type":"Feature","properties":{"plot_id":"P27","member_id":"OCC2099","area_ha":1.41,"reason":"in_line_with_peers","confidence":"high","synthetic":true},"geometry":{"type":"Polygon","coordinates":[[[36.95533,-0.57214],[36.95571,-0.57159],[36.95552,-0.57081],[36.95481,-0.57094],[36.95444,-0.57123],[36.95483,-0.57206],[36.95533,-0.57214]]]}},
{"type":"Feature","properties":{"plot_id":"P28","member_id":"OCC2136","area_ha":1.77,"reason":"in_line_with_peers","confidence":"high","synthetic":true},"geometry":{"type":"Polygon","coordinates":[[[36.95824,-0.56679],[36.95727,-0.56645],[36.95698,-0.56747],[36.95771,-0.56806],[36.95832,-0.56762],[36.95824,-0.56679]]]}},
{"type":"Feature","properties":{"plot_id":"P29","member_id":"OCC2173","area_ha":1.74,"reason":"in_line_with_peers","confidence":"low","synthetic":true},"geometry":{"type":"Polygon","coordinates":[[[36.95804,-0.57551],[36.9583,-0.57641],[36.95921,-0.57655],[36.95955,-0.57573],[36.95905,-0.57517],[36.95804,-0.57551]]]}},
{"type":"Feature","properties":{"plot_id":"P30","member_id":"OCC2210","area_ha":0.88,"reason":"not_enough_data","confidence":"low","synthetic":true},"geometry":{"type":"Polygon","coordinates":[[[36.96099,-0.5355],[36.96159,-0.53556],[36.96186,-0.53546],[36.96193,-0.53499],[36.96148,-0.53456],[36.96114,-0.53477],[36.96091,-0.53523],[36.96099,-0.5355]]]}},
{"type":"Feature","properties":{"plot_id":"P31","member_id":"OCC2247","area_ha":0.86,"reason":"not_enough_data","confidence":"low","synthetic":true},"geometry":{"type":"Polygon","coordinates":[[[36.97032,-0.56047],[36.96978,-0.56058],[36.9696,-0.56101],[36.96983,-0.56138],[36.97023,-0.56148],[36.97053,-0.56131],[36.97054,-0.56087],[36.97032,-0.56047]]]}},
{"type":"Feature","properties":{"plot_id":"P32","member_id":"OCC2284","area_ha":1.61,"reason":"not_enough_data","confidence":"low","synthetic":true},"geometry":{"type":"Polygon","coordinates":[[[36.95722,-0.57499],[36.95694,-0.57445],[36.95636,-0.5744],[36.95588,-0.57493],[36.9561,-0.57566],[36.95694,-0.57571],[36.95722,-0.57499]]]}},
{"type":"Feature","properties":{"plot_id":"P33","member_id":"OCC2321","area_ha":2.49,"reason":"area_wide_weather","confidence":"high","synthetic":true},"geometry":{"type":"Polygon","coordinates":[[[36.99335,-0.57893],[36.99432,-0.57885],[36.99461,-0.57818],[36.99427,-0.57755],[36.99354,-0.57735],[36.99308,-0.57755],[36.9929,-0.57842],[36.99335,-0.57893]]]}},
{"type":"Feature","properties":{"plot_id":"P34","member_id":"OCC2358","area_ha":1.11,"reason":"area_wide_weather","confidence":"high","synthetic":true},"geometry":{"type":"Polygon","coordinates":[[[36.99771,-0.57604],[36.99708,-0.57621],[36.99704,-0.57671],[36.99748,-0.57703],[36.99784,-0.57703],[36.99826,-0.57685],[36.99803,-0.57616],[36.99771,-0.57604]]]}},
{"type":"Feature","properties":{"plot_id":"P35","member_id":"OCC2395","area_ha":1.89,"reason":"area_wide_weather","confidence":"high","synthetic":true},"geometry":{"type":"Polygon","coordinates":[[[36.99587,-0.5775],[36.99635,-0.57714],[36.99644,-0.5762],[36.99559,-0.57595],[36.99509,-0.57615],[36.99517,-0.57703],[36.99587,-0.5775]]]}},
{"type":"Feature","properties":{"plot_id":"P36","member_id":"OCC2432","area_ha":2.02,"reason":"area_wide_weather","confidence":"high","synthetic":true},"geometry":{"type":"Polygon","coordinates":[[[36.99275,-0.57228],[36.99166,-0.57329],[36.99238,-0.57395],[36.99311,-0.57379],[36.99329,-0.57266],[36.99275,-0.57228]]]}},
{"type":"Feature","properties":{"plot_id":"P37","member_id":"OCC2469","area_ha":0.65,"reason":"area_wide_weather","confidence":"high","synthetic":true},"geometry":{"type":"Polygon","coordinates":[[[36.99503,-0.57295],[36.99447,-0.57336],[36.99471,-0.57379],[36.9953,-0.57371],[36.99539,-0.57307],[36.99503,-0.57295]]]}},
{"type":"Feature","properties":{"plot_id":"P38","member_id":"OCC2506","area_ha":1.46,"reason":"area_wide_weather","confidence":"high","synthetic":true},"geometry":{"type":"Polygon","coordinates":[[[36.99795,-0.57331],[36.99805,-0.57424],[36.99875,-0.57449],[36.99924,-0.57426],[36.99887,-0.57323],[36.99795,-0.57331]]]}},
{"type":"Feature","properties":{"plot_id":"P39","member_id":"OCC2543","area_ha":2.42,"reason":"in_line_with_peers","confidence":"high","synthetic":true},"geometry":{"type":"Polygon","coordinates":[[[36.95961,-0.56862],[36.95893,-0.56867],[36.95841,-0.56952],[36.9587,-0.57026],[36.9596,-0.5701],[36.96021,-0.56918],[36.95961,-0.56862]]]}},
{"type":"Feature","properties":{"plot_id":"P40","member_id":"OCC2580","area_ha":2.29,"reason":"in_line_with_peers","confidence":"high","synthetic":true},"geometry":{"type":"Polygon","coordinates":[[[36.96436,-0.56924],[36.96443,-0.5683],[36.96343,-0.5681],[36.96272,-0.56851],[36.9636,-0.56986],[36.96436,-0.56924]]]}}
]}
